{"type": "FeatureCollection", "features": [ {"type": "Feature", "properties": {"norad_id": 44476, "name": "INTELSAT 39 (IS-39)", "group": "intelsat", "lat": -0.03518414652602391, "lon": -130.155290580597, "alt_km": 35787.50854159819, "timestamp": "2025-12-13T05:42:57.166220+00:00", "meta": {"OBJECT_NAME": "INTELSAT 39 (IS-39)", "OBJECT_ID": "2019-049B", "EPOCH": "2025-12-11T23:25:15.903264", "MEAN_MOTION": 1.00267474, "ECCENTRICITY": 0.0001157, "INCLINATION": 0.0183, "RA_OF_ASC_NODE": 320.2601, "ARG_OF_PERICENTER": 176.2508, "MEAN_ANOMALY": 357.6803, "EPHEMERIS_TYPE": 0, "CLASSIFICATION_TYPE": "U", "NORAD_CAT_ID": 44476, "ELEMENT_SET_NO": 999, "REV_AT_EPOCH": 2325, "BSTAR": 0, "MEAN_MOTION_DOT": 4.3e-07, "MEAN_MOTION_DDOT": 0}, "tle": {"line1": "1 44476U 19049B   25345.97587851  .00000043  00000+0  00000+0 0  9992", "line2": "2 44476   0.0183 320.2601 0001157 176.2508 357.6803  1.00267474 23251"}}, "geometry": {"type": "Point", "coordinates": [-130.155290580597, -0.03518414652602391]}}, {"type": "Feature", "properties": {"norad_id": 46114, "name": "GALAXY 30 (G-30)", "group": "intelsat", "lat": 0.029626195442908444, "lon": 42.92635488363553, "alt_km": 35793.15405611197, "timestamp": "2025-12-13T05:42:57.166232+00:00", "meta": {"OBJECT_NAME": "GALAXY 30 (G-30)", "OBJECT_ID": "2020-056C", "EPOCH": "2025-12-12T06:02:16.423008", "MEAN_MOTION": 1.00272766, "ECCENTRICITY": 0.00022451, "INCLINATION": 0.0132, "RA_OF_ASC_NODE": 333.7243, "ARG_OF_PERICENTER": 287.9124, "MEAN_ANOMALY": 145.1344, "EPHEMERIS_TYPE": 0, "CLASSIFICATION_TYPE": "U", "NORAD_CAT_ID": 46114, "ELEMENT_SET_NO": 999, "REV_AT_EPOCH": 1941, "BSTAR": 0, "MEAN_MOTION_DOT": 4.6e-07, "MEAN_MOTION_DDOT": 0}, "tle": {"line1": "1 46114U 20056C   25346.25157897  .00000046  00000+0  00000+0 0  9991", "line2": "2 46114   0.0132 333.7243 0002245 287.9124 145.1344  1.00272766 19413"}}, "geometry": {"type": "Point", "coordinates": [42.92635488363553, 0.029626195442908444]}}, {"type": "Feature", "properties": {"norad_id": 54026, "name": "GALAXY 33 (G-33)", "group": "intelsat", "lat": 0.026707591145441585, "lon": 34.91922188406883, "alt_km": 35792.6775656401, "timestamp": "2025-12-13T05:42:57.166244+00:00", "meta": {"OBJECT_NAME": "GALAXY 33 (G-33)", "OBJECT_ID": "2022-128A", "EPOCH": "2025-12-11T16:18:14.016960", "MEAN_MOTION": 1.00271184, "ECCENTRICITY": 0.0002031, "INCLINATION": 0.0122, "RA_OF_ASC_NODE": 329.7994, "ARG_OF_PERICENTER": 285.1983, "MEAN_ANOMALY": 297.1989, "EPHEMERIS_TYPE": 0, "CLASSIFICATION_TYPE": "U", "NORAD_CAT_ID": 54026, "ELEMENT_SET_NO": 999, "REV_AT_EPOCH": 1186, "BSTAR": 0, "MEAN_MOTION_DOT": 8.7e-07, "MEAN_MOTION_DDOT": 0}, "tle": {"line1": "1 54026U 22128A   25345.67932890  .00000087  00000+0  00000+0 0  9998", "line2": "2 54026   0.0122 329.7994 0002031 285.1983 297.1989  1.00271184 11864"}}, "geometry": {"type": "Point", "coordinates": [34.91922188406883, 0.026707591145441585]}}, {"type": "Feature", "properties": {"norad_id": 54027, "name": "GALAXY 34 (G-34)", "group": "intelsat", "lat": 0.03543017360327483, "lon": 38.97212216771463, "alt_km": 35791.46310302763, "timestamp": "2025-12-13T05:42:57.166256+00:00", "meta": {"OBJECT_NAME": "GALAXY 34 (G-34)", "OBJECT_ID": "2022-128B", "EPOCH": "2025-12-11T16:19:21.409824", "MEAN_MOTION": 1.00269841, "ECCENTRICITY": 0.0001404, "INCLINATION": 0.0224, "RA_OF_ASC_NODE": 340.3184, "ARG_OF_PERICENTER": 271.9035, "MEAN_ANOMALY": 304.3231, "EPHEMERIS_TYPE": 0, "CLASSIFICATION_TYPE": "U", "NORAD_CAT_ID": 54027, "ELEMENT_SET_NO": 999, "REV_AT_EPOCH": 1203, "BSTAR": 0, "MEAN_MOTION_DOT": 0, "MEAN_MOTION_DDOT": 0}, "tle": {"line1": "1 54027U 22128B   25345.68010891  .00000000  00000+0  00000+0 0  9993", "line2": "2 54027   0.0224 340.3184 0001404 271.9035 304.3231  1.00269841 12030"}}, "geometry": {"type": "Point", "coordinates": [38.97212216771463, 0.03543017360327483]}}, {"type": "Feature", "properties": {"norad_id": 54243, "name": "GALAXY 31 (G-31)", "group": "intelsat", "lat": 0.02153123616544137, "lon": 46.920619213290074, "alt_km": 35791.182511193336, "timestamp": "2025-12-13T05:42:57.166268+00:00", "meta": {"OBJECT_NAME": "GALAXY 31 (G-31)", "OBJECT_ID": "2022-153A", "EPOCH": "2025-12-12T06:03:23.815008", "MEAN_MOTION": 1.00271471, "ECCENTRICITY": 0.00016914, "INCLINATION": 0.0142, "RA_OF_ASC_NODE": 275.9057, "ARG_OF_PERICENTER": 356.0007, "MEAN_ANOMALY": 139.1476, "EPHEMERIS_TYPE": 0, "CLASSIFICATION_TYPE": "U", "NORAD_CAT_ID": 54243, "ELEMENT_SET_NO": 999, "REV_AT_EPOCH": 525, "BSTAR": 0, "MEAN_MOTION_DOT": 2.3e-07, "MEAN_MOTION_DDOT": 0}, "tle": {"line1": "1 54243U 22153A   25346.25235897  .00000023  00000+0  00000+0 0  9995", "line2": "2 54243   0.0142 275.9057 0001691 356.0007 139.1476  1.00271471  5256"}}, "geometry": {"type": "Point", "coordinates": [46.920619213290074, 0.02153123616544137]}}, {"type": "Feature", "properties": {"norad_id": 54244, "name": "GALAXY 32 (G-32)", "group": "intelsat", "lat": 0.0265763570212366, "lon": 76.91081754152482, "alt_km": 35793.0796981637, "timestamp": "2025-12-13T05:42:57.166280+00:00", "meta": {"OBJECT_NAME": "GALAXY 32 (G-32)", "OBJECT_ID": "2022-153B", "EPOCH": "2025-12-11T19:55:38.198208", "MEAN_MOTION": 1.00270455, "ECCENTRICITY": 0.0002716, "INCLINATION": 0.0095, "RA_OF_ASC_NODE": 3.9095, "ARG_OF_PERICENTER": 308.1779, "MEAN_ANOMALY": 336.5954, "EPHEMERIS_TYPE": 0, "CLASSIFICATION_TYPE": "U", "NORAD_CAT_ID": 54244, "ELEMENT_SET_NO": 999, "REV_AT_EPOCH": 1126, "BSTAR": 0, "MEAN_MOTION_DOT": -1.66e-06, "MEAN_MOTION_DDOT": 0}, "tle": {"line1": "1 54244U 22153B   25345.83030322 -.00000166  00000+0  00000+0 0  9994", "line2": "2 54244   0.0095   3.9095 0002716 308.1779 336.5954  1.00270455 11261"}}, "geometry": {"type": "Point", "coordinates": [76.91081754152482, 0.0265763570212366]}}, {"type": "Feature", "properties": {"norad_id": 54741, "name": "GALAXY 35 (G-35)", "group": "intelsat", "lat": 0.014879168557238424, "lon": 74.81648493812725, "alt_km": 35796.56549789546, "timestamp": "2025-12-13T05:42:57.166292+00:00", "meta": {"OBJECT_NAME": "GALAXY 35 (G-35)", "OBJECT_ID": "2022-170A", "EPOCH": "2025-12-12T06:11:23.049888", "MEAN_MOTION": 1.00271242, "ECCENTRICITY": 0.00024863, "INCLINATION": 0.0138, "RA_OF_ASC_NODE": 271.307, "ARG_OF_PERICENTER": 355.6347, "MEAN_ANOMALY": 174.0196, "EPHEMERIS_TYPE": 0, "CLASSIFICATION_TYPE": "U", "NORAD_CAT_ID": 54741, "ELEMENT_SET_NO": 999, "REV_AT_EPOCH": 1101, "BSTAR": 0, "MEAN_MOTION_DOT": -1.52e-06, "MEAN_MOTION_DDOT": 0}, "tle": {"line1": "1 54741U 22170A   25346.25790567 -.00000152  00000+0  00000+0 0  9991", "line2": "2 54741   0.0138 271.3070 0002486 355.6347 174.0196  1.00271242 11018"}}, "geometry": {"type": "Point", "coordinates": [74.81648493812725, 0.014879168557238424]}}, {"type": "Feature", "properties": {"norad_id": 54742, "name": "GALAXY 36 (G-36)", "group": "intelsat", "lat": 0.012353616503474047, "lon": 78.91051278013501, "alt_km": 35787.34087677258, "timestamp": "2025-12-13T05:42:57.166303+00:00", "meta": {"OBJECT_NAME": "GALAXY 36 (G-36)", "OBJECT_ID": "2022-170B", "EPOCH": "2025-12-12T06:12:30.442752", "MEAN_MOTION": 1.00272255, "ECCENTRICITY": 3.817e-05, "INCLINATION": 0.0297, "RA_OF_ASC_NODE": 118.7266, "ARG_OF_PERICENTER": 174.1919, "MEAN_ANOMALY": 152.4184, "EPHEMERIS_TYPE": 0, "CLASSIFICATION_TYPE": "U", "NORAD_CAT_ID": 54742, "ELEMENT_SET_NO": 999, "REV_AT_EPOCH": 1089, "BSTAR": 0, "MEAN_MOTION_DOT": -1.75e-06, "MEAN_MOTION_DDOT": 0}, "tle": {"line1": "1 54742U 22170B   25346.25868568 -.00000175  00000+0  00000+0 0  9994", "line2": "2 54742   0.0297 118.7266 0000381 174.1919 152.4184  1.00272255 10894"}}, "geometry": {"type": "Point", "coordinates": [78.91051278013501, 0.012353616503474047]}}, {"type": "Feature", "properties": {"norad_id": 57493, "name": "GALAXY 37 (G-37)", "group": "intelsat", "lat": 0.014455234648719709, "lon": 40.92362025316982, "alt_km": 35792.544041815956, "timestamp": "2025-12-13T05:42:57.166315+00:00", "meta": {"OBJECT_NAME": "GALAXY 37 (G-37)", "OBJECT_ID": "2023-112A", "EPOCH": "2025-12-12T06:01:38.981568", "MEAN_MOTION": 1.00271569, "ECCENTRICITY": 0.00021597, "INCLINATION": 0.013, "RA_OF_ASC_NODE": 30.1823, "ARG_OF_PERICENTER": 235.6604, "MEAN_ANOMALY": 138.772, "EPHEMERIS_TYPE": 0, "CLASSIFICATION_TYPE": "U", "NORAD_CAT_ID": 57493, "ELEMENT_SET_NO": 999, "REV_AT_EPOCH": 866, "BSTAR": 0, "MEAN_MOTION_DOT": 5.8e-07, "MEAN_MOTION_DDOT": 0}, "tle": {"line1": "1 57493U 23112A   25346.25114562  .00000058  00000+0  00000+0 0  9994", "line2": "2 57493   0.0130  30.1823 0002159 235.6604 138.7720  1.00271569  8663"}}, "geometry": {"type": "Point", "coordinates": [40.92362025316982, 0.014455234648719709]}}]}